{
    "links": {
        "self": "http://www.neowsapp.com/rest/v1/neo/3838057?api_key=iIulBulltgU6a56xZRHN4H3l9WmuAYTsLGpBGhQ2"
    },
    "id": "3838057",
    "neo_reference_id": "3838057",
    "name": "(2019 BH4)",
    "designation": "2019 BH4",
    "nasa_jpl_url": "http://ssd.jpl.nasa.gov/sbdb.cgi?sstr=3838057",
    "absolute_magnitude_h": 21.1,
    "estimated_diameter": {
        "kilometers": {
            "estimated_diameter_min": 0.160160338,
            "estimated_diameter_max": 0.358129403
        },
        "meters": {
            "estimated_diameter_min": 160.1603379786,
            "estimated_diameter_max": 358.1294030194
        },
        "miles": {
            "estimated_diameter_min": 0.0995189894,
            "estimated_diameter_max": 0.2225312253
        },
        "feet": {
            "estimated_diameter_min": 525.4604432536,
            "estimated_diameter_max": 1174.9652706022
        }
    },
    "is_potentially_hazardous_asteroid": false,
    "close_approach_data": [
        {
            "close_approach_date": "2019-01-08",
            "close_approach_date_full": "2019-Jan-08 23:03",
            "epoch_date_close_approach": 1546988580000,
            "relative_velocity": {
                "kilometers_per_second": "29.6144032605",
                "kilometers_per_hour": "106611.8517378432",
                "miles_per_hour": "66244.4586534393"
            },
            "miss_distance": {
                "astronomical": "0.2641647822",
                "lunar": "102.7601002758",
                "kilometers": "39518488.746133914",
                "miles": "24555650.2462154532"
            },
            "orbiting_body": "Earth"
        }
    ],
    "orbital_data": {
        "orbit_id": "2",
        "orbit_determination_date": "2019-02-01 08:35:16",
        "first_observation_date": "2019-01-27",
        "last_observation_date": "2019-02-01",
        "data_arc_in_days": 5,
        "observations_used": 21,
        "orbit_uncertainty": "9",
        "minimum_orbit_intersection": ".172112",
        "jupiter_tisserand_invariant": "2.640",
        "epoch_osculation": "2458511.5",
        "eccentricity": ".9166494367367551",
        "semi_major_axis": "2.444691927666279",
        "inclination": "20.91258570054781",
        "ascending_node_longitude": "143.5430276634656",
        "orbital_period": "1396.158210341442",
        "perihelion_distance": ".2037664491760922",
        "perihelion_argument": "199.4929746887119",
        "aphelion_distance": "4.685617406156466",
        "perihelion_time": "2458450.777149611094",
        "mean_anomaly": "15.65741330608947",
        "mean_motion": ".257850433663932",
        "equinox": "J2000",
        "orbit_class": {
            "orbit_class_type": "APO",
            "orbit_class_description": "Near-Earth asteroid orbits which cross the Earth’s orbit similar to that of 1862 Apollo",
            "orbit_class_range": "a (semi-major axis) > 1.0 AU; q (perihelion) < 1.017 AU"
        }
    },
    "is_sentry_object": false
}